*******************************************************************************
JPL/HORIZONS                4595 Prinz (1981 EZ2)          2023-Sep-05 05:19:07
Rec #:    4595 (+COV) Soln.date: 2023-Aug-23_19:51:10   # obs: 2482 (1981-2023)
 
IAU76/J2000 helio. ecliptic osc. elements (au, days, deg., period=Julian yrs):
 
  EPOCH=  2457626.5 ! 2016-Aug-26.00 (TDB)         Residual RMS= .27078
   EC= .1017713446557287   QR= 2.276306478273283   TP= 2458053.1594491778
   OM= 219.208381121185    W=  348.2350321738923   IN= 8.651438729525937
   A= 2.534217167009468    MA= 255.7635290411437   ADIST= 2.792127855745653
   PER= 4.03435            N= .244308362           ANGMOM= .027242223
   DAN= 2.28073            DDN= 2.7855             L= 207.5736084
   B= -1.7575869           MOID= 1.27205002        TP= 2017-Oct-26.6594491778
 
Asteroid physical parameters (km, seconds, rotational period in hours):
   GM= n.a.                RAD= 1.9165             ROTPER= n.a.
   H= 14.16                G= .150                 B-V= n.a.
                           ALBEDO= .398            STYP= n.a.

ASTEROID comments: 
1: soln ref.= JPL#40, OCC=0
2: source=ORB
*******************************************************************************


*******************************************************************************
Ephemeris / API_USER Tue Sep  5 05:19:07 2023 Pasadena, USA      / Horizons
*******************************************************************************
Target body name: 4595 Prinz (1981 EZ2)           {source: JPL#40}
Center body name: Solar System Barycenter (0)     {source: DE441}
Center-site name: BODY CENTER
*******************************************************************************
Start time      : A.D. 2023-Aug-12 00:00:00.0000 TDB
Stop  time      : A.D. 2023-Aug-13 00:00:00.0000 TDB
Step-size       : 2880 minutes
*******************************************************************************
Center geodetic : 0.0, 0.0, 0.0                   {E-lon(deg),Lat(deg),Alt(km)}
Center cylindric: 0.0, 0.0, 0.0                   {E-lon(deg),Dxy(km),Dz(km)}
Center radii    : (undefined)
Small perturbers: Yes                             {source: SB441-N16}
Output units    : KM-S
Calendar mode   : Mixed Julian/Gregorian
Output type     : GEOMETRIC cartesian states
Output format   : 2 (position and velocity)
Reference frame : Ecliptic of J2000.0
*******************************************************************************
Initial IAU76/J2000 heliocentric ecliptic osculating elements (au, days, deg.):
  EPOCH=  2457626.5 ! 2016-Aug-26.00 (TDB)         Residual RMS= .27078        
   EC= .1017713446557287   QR= 2.276306478273283   TP= 2458053.1594491778      
   OM= 219.208381121185    W=  348.2350321738923   IN= 8.651438729525937       
  Equivalent ICRF heliocentric cartesian coordinates (au, au/d):
   X=-9.066717003812885E-02  Y= 2.511480139500845E+00  Z= 7.451698688958759E-01
  VX=-1.030482007914741E-02 VY=-1.020695218716355E-03 VZ=-1.334281246677041E-03
Asteroid physical parameters (km, seconds, rotational period in hours):        
   GM= n.a.                RAD= 1.9165             ROTPER= n.a.                
   H= 14.16                G= .150                 B-V= n.a.                   
                           ALBEDO= .398            STYP= n.a.                  
*******************************************************************************
JDTDB
   X     Y     Z
   VX    VY    VZ
*******************************************************************************
$$SOE
2460168.500000000 = A.D. 2023-Aug-12 00:00:00.0000 TDB 
 X = 4.079896765895929E+08 Y = 5.990683733136824E+07 Z = 3.227109847130144E+07
 VX=-1.670664115920146E+00 VY= 1.679356568395896E+01 VZ=-2.144381743908257E+00
$$EOE
*******************************************************************************
 
TIME

  Barycentric Dynamical Time ("TDB" or T_eph) output was requested. This
continuous coordinate time is equivalent to the relativistic proper time
of a clock at rest in a reference frame co-moving with the solar system
barycenter but outside the system's gravity well. It is the independent
variable in the solar system relativistic equations of motion.

  TDB runs at a uniform rate of one SI second per second and is independent
of irregularities in Earth's rotation.
 
CALENDAR SYSTEM

  Mixed calendar mode was active such that calendar dates after AD 1582-Oct-15
(if any) are in the modern Gregorian system. Dates prior to 1582-Oct-5 (if any)
are in the Julian calendar system, which is automatically extended for dates
prior to its adoption on 45-Jan-1 BC.  The Julian calendar is useful for
matching historical dates. The Gregorian calendar more accurately corresponds
to the Earth's orbital motion and seasons. A "Gregorian-only" calendar mode is
available if such physical events are the primary interest.

REFERENCE FRAME AND COORDINATES

  Ecliptic at the standard reference epoch

    Reference epoch: J2000.0
    X-Y plane: adopted Earth orbital plane at the reference epoch
               Note: IAU76 obliquity of 84381.448 arcseconds wrt ICRF X-Y plane
    X-axis   : ICRF
    Z-axis   : perpendicular to the X-Y plane in the directional (+ or -) sense
               of Earth's north pole at the reference epoch.

  Symbol meaning:

    JDTDB    Julian Day Number, Barycentric Dynamical Time
      X      X-component of position vector (km)
      Y      Y-component of position vector (km)
      Z      Z-component of position vector (km)
      VX     X-component of velocity vector (km/sec)                           
      VY     Y-component of velocity vector (km/sec)                           
      VZ     Z-component of velocity vector (km/sec)                           

ABERRATIONS AND CORRECTIONS

 Geometric state vectors have NO corrections or aberrations applied.

Computations by ...

    Solar System Dynamics Group, Horizons On-Line Ephemeris System
    4800 Oak Grove Drive, Jet Propulsion Laboratory
    Pasadena, CA  91109   USA

    General site: https://ssd.jpl.nasa.gov/
    Mailing list: https://ssd.jpl.nasa.gov/email_list.html
    System news : https://ssd.jpl.nasa.gov/horizons/news.html
    User Guide  : https://ssd.jpl.nasa.gov/horizons/manual.html
    Connect     : browser        https://ssd.jpl.nasa.gov/horizons/app.html#/x
                  API            https://ssd-api.jpl.nasa.gov/doc/horizons.html
                  command-line   telnet ssd.jpl.nasa.gov 6775
                  e-mail/batch   https://ssd.jpl.nasa.gov/ftp/ssd/hrzn_batch.txt
                  scripts        https://ssd.jpl.nasa.gov/ftp/ssd/SCRIPTS
    Author      : Jon.D.Giorgini@jpl.nasa.gov
*******************************************************************************
